{
    "links": {
        "self": "http://www.neowsapp.com/rest/v1/neo/3508135?api_key=iIulBulltgU6a56xZRHN4H3l9WmuAYTsLGpBGhQ2"
    },
    "id": "3508135",
    "neo_reference_id": "3508135",
    "name": "(2010 CF55)",
    "designation": "2010 CF55",
    "nasa_jpl_url": "http://ssd.jpl.nasa.gov/sbdb.cgi?sstr=3508135",
    "absolute_magnitude_h": 21.7,
    "estimated_diameter": {
        "kilometers": {
            "estimated_diameter_min": 0.1214940408,
            "estimated_diameter_max": 0.2716689341
        },
        "meters": {
            "estimated_diameter_min": 121.4940407996,
            "estimated_diameter_max": 271.6689340891
        },
        "miles": {
            "estimated_diameter_min": 0.0754928736,
            "estimated_diameter_max": 0.1688071972
        },
        "feet": {
            "estimated_diameter_min": 398.6025088171,
            "estimated_diameter_max": 891.3023057169
        }
    },
    "is_potentially_hazardous_asteroid": false,
    "close_approach_data": [
        {
            "close_approach_date": "2010-03-18",
            "close_approach_date_full": "2010-Mar-18 17:13",
            "epoch_date_close_approach": 1268932380000,
            "relative_velocity": {
                "kilometers_per_second": "19.6378271241",
                "kilometers_per_hour": "70696.1776468306",
                "miles_per_hour": "43927.8554939431"
            },
            "miss_distance": {
                "astronomical": "0.1949394823",
                "lunar": "75.8314586147",
                "kilometers": "29162531.330982701",
                "miles": "18120756.6984192338"
            },
            "orbiting_body": "Earth"
        }
    ],
    "orbital_data": {
        "orbit_id": "10",
        "orbit_determination_date": "2017-04-06 08:58:21",
        "first_observation_date": "2010-02-15",
        "last_observation_date": "2010-03-18",
        "data_arc_in_days": 31,
        "observations_used": 22,
        "orbit_uncertainty": "8",
        "minimum_orbit_intersection": ".0535882",
        "jupiter_tisserand_invariant": "3.519",
        "epoch_osculation": "2455246.5",
        "eccentricity": ".761234151801202",
        "semi_major_axis": "1.900280172817218",
        "inclination": "5.152003618967228",
        "ascending_node_longitude": "311.5061529664196",
        "orbital_period": "956.8081862842395",
        "perihelion_distance": ".4537220072780614",
        "perihelion_argument": "321.8398650552509",
        "aphelion_distance": "3.346838338356374",
        "perihelion_time": "2455321.272454527554",
        "mean_anomaly": "331.866792095022",
        "mean_motion": ".376250961436752",
        "equinox": "J2000",
        "orbit_class": {
            "orbit_class_type": "APO",
            "orbit_class_description": "Near-Earth asteroid orbits which cross the Earth’s orbit similar to that of 1862 Apollo",
            "orbit_class_range": "a (semi-major axis) > 1.0 AU; q (perihelion) < 1.017 AU"
        }
    },
    "is_sentry_object": false
}